{
  "type": "FeatureCollection",
  "features": [
    {
      "type": "Feature",
      "properties": {
        "norad_id": 32130,
        "name": "FENGYUN 1C DEB",
        "group": "fengyun-1c-debris",
        "lat": -67.07190426704875,
        "lon": 170.48212927072115,
        "alt_km": 737.0808462681443,
        "timestamp": "2025-12-08T08:59:01.051442+00:00",
        "meta_object_name": "FENGYUN 1C DEB",
        "meta_object_id": "1999-025CRY",
        "meta_epoch": "2025-12-07T04:54:01.584000",
        "meta_mean_motion": 14.37525064,
        "meta_eccentricity": 0.00827201,
        "meta_inclination": 98.9035,
        "meta_ra_of_asc_node": 147.5186,
        "meta_arg_of_pericenter": 346.5702,
        "meta_mean_anomaly": 13.3282,
        "meta_ephemeris_type": 0,
        "meta_classification_type": "U",
        "meta_norad_cat_id": 32130,
        "meta_element_set_no": 999,
        "meta_rev_at_epoch": 96155,
        "meta_bstar": 0.00070700454,
        "meta_mean_motion_dot": 2.155e-05,
        "meta_mean_motion_ddot": 0,
        "tle_line1": "1 32130U 99025CRY 25341.20418500  .00002155  00000+0  70700-3 0  9998",
        "tle_line2": "2 32130  98.9035 147.5186 0082720 346.5702  13.3282 14.37525064961555"
      },
      "geometry": {
        "type": "Point",
        "coordinates": [
          170.48212927072115,
          -67.07190426704875
        ]
      }
    },
    {
      "type": "Feature",
      "properties": {
        "norad_id": 32133,
        "name": "FENGYUN 1C DEB",
        "group": "fengyun-1c-debris",
        "lat": -70.84906652255854,
        "lon": 138.5179136270358,
        "alt_km": 859.0980510931586,
        "timestamp": "2025-12-08T08:59:01.051452+00:00",
        "meta_object_name": "FENGYUN 1C DEB",
        "meta_object_id": "1999-025CSB",
        "meta_epoch": "2025-12-07T11:28:39.484128",
        "meta_mean_motion": 14.18065093,
        "meta_eccentricity": 0.00363357,
        "meta_inclination": 98.431,
        "meta_ra_of_asc_node": 342.9491,
        "meta_arg_of_pericenter": 115.6515,
        "meta_mean_anomaly": 244.8421,
        "meta_ephemeris_type": 0,
        "meta_classification_type": "U",
        "meta_norad_cat_id": 32133,
        "meta_element_set_no": 999,
        "meta_rev_at_epoch": 94900,
        "meta_bstar": 0.00031882408,
        "meta_mean_motion_dot": 6.17e-06,
        "meta_mean_motion_ddot": 0,
        "tle_line1": "1 32133U 99025CSB 25341.47823477  .00000617  00000+0  31882-3 0  9992",
        "tle_line2": "2 32133  98.4310 342.9491 0036335 115.6515 244.8421 14.18065093949009"
      },
      "geometry": {
        "type": "Point",
        "coordinates": [
          138.5179136270358,
          -70.84906652255854
        ]
      }
    },
    {
      "type": "Feature",
      "properties": {
        "norad_id": 32134,
        "name": "FENGYUN 1C DEB",
        "group": "fengyun-1c-debris",
        "lat": 50.32060829715166,
        "lon": -24.826947890180314,
        "alt_km": 944.5505610113496,
        "timestamp": "2025-12-08T08:59:01.051463+00:00",
        "meta_object_name": "FENGYUN 1C DEB",
        "meta_object_id": "1999-025CSC",
        "meta_epoch": "2025-12-07T11:31:51.559104",
        "meta_mean_motion": 14.2152476,
        "meta_eccentricity": 0.02590088,
        "meta_inclination": 98.594,
        "meta_ra_of_asc_node": 344.8046,
        "meta_arg_of_pericenter": 278.9279,
        "meta_mean_anomaly": 238.3835,
        "meta_ephemeris_type": 0,
        "meta_classification_type": "U",
        "meta_norad_cat_id": 32134,
        "meta_element_set_no": 999,
        "meta_rev_at_epoch": 95072,
        "meta_bstar": 0.001182529,
        "meta_mean_motion_dot": 3.592e-05,
        "meta_mean_motion_ddot": 0,
        "tle_line1": "1 32134U 99025CSC 25341.48045786  .00003592  00000+0  11825-2 0  9992",
        "tle_line2": "2 32134  98.5940 344.8046 0259008 278.9279 238.3835 14.21524760950724"
      },
      "geometry": {
        "type": "Point",
        "coordinates": [
          -24.826947890180314,
          50.32060829715166
        ]
      }
    },
    {
      "type": "Feature",
      "properties": {
        "norad_id": 32136,
        "name": "FENGYUN 1C DEB",
        "group": "fengyun-1c-debris",
        "lat": -3.1742409328741523,
        "lon": -18.86867771433305,
        "alt_km": 814.8542456746609,
        "timestamp": "2025-12-08T08:59:01.051473+00:00",
        "meta_object_name": "FENGYUN 1C DEB",
        "meta_object_id": "1999-025CSE",
        "meta_epoch": "2025-11-08T10:52:11.631360",
        "meta_mean_motion": 14.37825296,
        "meta_eccentricity": 0.00661033,
        "meta_inclination": 98.2658,
        "meta_ra_of_asc_node": 311.8847,
        "meta_arg_of_pericenter": 277.2954,
        "meta_mean_anomaly": 82.0724,
        "meta_ephemeris_type": 0,
        "meta_classification_type": "U",
        "meta_norad_cat_id": 32136,
        "meta_element_set_no": 999,
        "meta_rev_at_epoch": 64597,
        "meta_bstar": 0.00089904729,
        "meta_mean_motion_dot": 2.737e-05,
        "meta_mean_motion_ddot": 0,
        "tle_line1": "1 32136U 99025CSE 25312.45291240  .00002737  00000+0  89905-3 0  9992",
        "tle_line2": "2 32136  98.2658 311.8847 0066103 277.2954  82.0724 14.37825296645970"
      },
      "geometry": {
        "type": "Point",
        "coordinates": [
          -18.86867771433305,
          -3.1742409328741523
        ]
      }
    },
    {
      "type": "Feature",
      "properties": {
        "norad_id": 32137,
        "name": "FENGYUN 1C DEB",
        "group": "fengyun-1c-debris",
        "lat": -31.897489971489858,
        "lon": 114.68869443965005,
        "alt_km": 607.0693279940106,
        "timestamp": "2025-12-08T08:59:01.051483+00:00",
        "meta_object_name": "FENGYUN 1C DEB",
        "meta_object_id": "1999-025CSF",
        "meta_epoch": "2025-12-06T14:58:18.861024",
        "meta_mean_motion": 14.81103576,
        "meta_eccentricity": 0.01882049,
        "meta_inclination": 98.4431,
        "meta_ra_of_asc_node": 107.5404,
        "meta_arg_of_pericenter": 53.6795,
        "meta_mean_anomaly": 308.1629,
        "meta_ephemeris_type": 0,
        "meta_classification_type": "U",
        "meta_norad_cat_id": 32137,
        "meta_element_set_no": 999,
        "meta_rev_at_epoch": 66640,
        "meta_bstar": 0.0012837364,
        "meta_mean_motion_dot": 0.00013499,
        "meta_mean_motion_ddot": 0,
        "tle_line1": "1 32137U 99025CSF 25340.62382941  .00013499  00000+0  12837-2 0  9998",
        "tle_line2": "2 32137  98.4431 107.5404 0188204  53.6795 308.1629 14.81103576666403"
      },
      "geometry": {
        "type": "Point",
        "coordinates": [
          114.68869443965005,
          -31.897489971489858
        ]
      }
    },
    {
      "type": "Feature",
      "properties": {
        "norad_id": 32141,
        "name": "FENGYUN 1C DEB",
        "group": "fengyun-1c-debris",
        "lat": 81.24747295946023,
        "lon": -106.69874419743091,
        "alt_km": 908.201706287945,
        "timestamp": "2025-12-08T08:59:01.051494+00:00",
        "meta_object_name": "FENGYUN 1C DEB",
        "meta_object_id": "1999-025CSK",
        "meta_epoch": "2025-11-20T23:04:46.058016",
        "meta_mean_motion": 14.03501767,
        "meta_eccentricity": 0.00731678,
        "meta_inclination": 98.7436,
        "meta_ra_of_asc_node": 328.1999,
        "meta_arg_of_pericenter": 269.2169,
        "meta_mean_anomaly": 90.0615,
        "meta_ephemeris_type": 0,
        "meta_classification_type": "U",
        "meta_norad_cat_id": 32141,
        "meta_element_set_no": 999,
        "meta_rev_at_epoch": 94638,
        "meta_bstar": 0.00056632309,
        "meta_mean_motion_dot": 8.66e-06,
        "meta_mean_motion_ddot": 0,
        "tle_line1": "1 32141U 99025CSK 25324.96164419  .00000866  00000+0  56632-3 0  9996",
        "tle_line2": "2 32141  98.7436 328.1999 0073167 269.2169  90.0615 14.03501767946385"
      },
      "geometry": {
        "type": "Point",
        "coordinates": [
          -106.69874419743091,
          81.24747295946023
        ]
      }
    },
    {
      "type": "Feature",
      "properties": {
        "norad_id": 32143,
        "name": "FENGYUN 1C DEB",
        "group": "fengyun-1c-debris",
        "lat": -9.371398154808048,
        "lon": 138.016183042422,
        "alt_km": 807.855955470196,
        "timestamp": "2025-12-08T08:59:01.051504+00:00",
        "meta_object_name": "FENGYUN 1C DEB",
        "meta_object_id": "1999-025CSM",
        "meta_epoch": "2025-12-03T04:28:30.343584",
        "meta_mean_motion": 14.17959367,
        "meta_eccentricity": 0.01041232,
        "meta_inclination": 98.5963,
        "meta_ra_of_asc_node": 314.4234,
        "meta_arg_of_pericenter": 136.0042,
        "meta_mean_anomaly": 224.9481,
        "meta_ephemeris_type": 0,
        "meta_classification_type": "U",
        "meta_norad_cat_id": 32143,
        "meta_element_set_no": 999,
        "meta_rev_at_epoch": 95798,
        "meta_bstar": 0.00020859227,
        "meta_mean_motion_dot": 4.09e-06,
        "meta_mean_motion_ddot": 0,
        "tle_line1": "1 32143U 99025CSM 25337.18646231  .00000409  00000+0  20859-3 0  9998",
        "tle_line2": "2 32143  98.5963 314.4234 0104123 136.0042 224.9481 14.17959367957983"
      },
      "geometry": {
        "type": "Point",
        "coordinates": [
          138.016183042422,
          -9.371398154808048
        ]
      }
    }
  ]
}